IRIDIUM 8 [+]           
1 24792U 97020A   09143.42372099  .00000020  00000-0 -67691-7 0  6205
2 24792  86.3931 110.3003 0002533  78.9845 281.1634 14.34214159630837
IRIDIUM 7 [+]           
1 24793U 97020B   09143.41739642  .00000055  00000-0  12605-4 0  6193
2 24793  86.3945 110.4344 0002500  79.4675 280.6795 14.34213725630833
IRIDIUM 6 [+]           
1 24794U 97020C   09143.41103760  .00000096  00000-0  27313-4 0  4184
2 24794  86.3944 110.4250 0002300  81.9567 278.1885 14.34214599630837
IRIDIUM 5 [+]           
1 24795U 97020D   09143.47446045  .00000041  00000-0  76959-5 0  7541
2 24795  86.3928 110.5576 0002972 108.7391 251.4142 14.34214281630928
IRIDIUM 4 [+]           
1 24796U 97020E   09143.49983774  .00000067  00000-0  16859-4 0  6414
2 24796  86.3939 110.1711 0002446  78.9364 281.2107 14.34214229630869
IRIDIUM 914 [-]         
1 24836U 97030A   09143.06515226  .00000112  00000-0  30776-4 0  2181
2 24836  86.3919 134.8197 0003927  67.7928 292.3689 14.37436094625412
IRIDIUM 12 [+]          
1 24837U 97030B   09143.49052248 -.00000173  00000-0 -68688-4 0  6400
2 24837  86.3973 141.7253 0002557  77.8536 282.2946 14.34214950624592
IRIDIUM 10 [+]          
1 24839U 97030D   09143.54761383 -.00000038  00000-0 -20727-4 0  6384
2 24839  86.3948 141.6989 0002531  80.5907 279.5573 14.34217299624613
IRIDIUM 13 [+]          
1 24840U 97030E   09143.49686469 -.00000025  00000-0 -16003-4 0  5962
2 24840  86.3959 141.7941 0002470  78.4002 281.7471 14.34215255624599
IRIDIUM 16 [-]          
1 24841U 97030F   09143.49293217  .00000103  00000-0  28975-4 0  6224
2 24841  86.4051 142.3278 0002270 130.8241 229.3153 14.35281211624737
IRIDIUM 911 [-]         
1 24842U 97030G   09143.05913331  .00000109  00000-0  26475-4 0  3049
2 24842  86.4454 144.7242 0016061 134.7490 225.5023 14.43169654627668
IRIDIUM 15 [+]          
1 24869U 97034A   09143.48765108 -.00000072  00000-0 -32887-4 0  6594
2 24869  86.3985 173.3484 0002589  83.0387 277.1115 14.34217758621569
IRIDIUM 17 [-]          
1 24870U 97034B   09143.15988183  .00000087  00000-0  23784-4 0  6275
2 24870  86.3987 173.3911 0002329  78.3516 281.7942 14.34432227621537
IRIDIUM 920 [-]         
1 24871U 97034C   09143.58184477  .00000169  00000-0  49282-4 0  2433
2 24871  86.3997 166.4001 0010329 311.7631  48.2678 14.38061873622692
IRIDIUM 18 [+]          
1 24872U 97034D   09143.51936454  .00000058  00000-0  13663-4 0  6252
2 24872  86.4006 173.4766 0002427  85.5837 274.5641 14.34218801621565
IRIDIUM 921 [-]         
1 24873U 97034E   09143.20980357  .00000042  00000-0  97402-6 0  5741
2 24873  86.3900   2.6399 0006503 287.5691  72.4823 14.97142508645476
IRIDIUM 26 [+]          
1 24903U 97043A   09143.22661587  .00000162  00000-0  50615-4 0  7331
2 24903  86.3968  47.2070 0002378  74.5329 285.6121 14.34218992615460
IRIDIUM 25 [+]          
1 24904U 97043B   09143.53740262  .00000159  00000-0  49624-4 0  6247
2 24904  86.3973  47.0270 0002407  75.6577 284.4888 14.34218941615479
IRIDIUM 46 [+]          
1 24905U 97043C   09143.55008421  .00000156  00000-0  48493-4 0  6413
2 24905  86.3976  47.3005 0002366  72.5220 287.6235 14.34219261615485
IRIDIUM 23 [+]          
1 24906U 97043D   09143.52471688  .00000175  00000-0  55592-4 0  6431
2 24906  86.3966  46.9668 0002398  75.8752 284.2712 14.34219088615486
IRIDIUM 22 [+]          
1 24907U 97043E   09143.51837278  .00000169  00000-0  53300-4 0  6148
2 24907  86.3979  47.3600 0002434  75.2513 284.8953 14.34219271615489
DUMMY MASS 1 [-]        
1 24925U 97048A   09143.45023813  .00000057  00000-0  34827-5 0  2111
2 24925  86.3315 320.2916 0008715  23.7007 336.4624 14.83826684634464
DUMMY MASS 2 [-]        
1 24926U 97048B   09143.04255949  .00000044  00000-0  20016-5 0  2058
2 24926  86.3317 321.1229 0009662  27.0964 333.0767 14.83607496634318
IRIDIUM 29 [+]          
1 24944U 97051A   09143.52818342  .00000140  00000-0  42865-4 0  5906
2 24944  86.3946  78.6648 0002506  75.9032 284.2445 14.34217852612059
IRIDIUM 32 [+]          
1 24945U 97051B   09143.54722600  .00000152  00000-0  47160-4 0  5984
2 24945  86.3945  78.6709 0002470  77.4967 282.6506 14.34217532612078
IRIDIUM 33 [-]          
1 24946U 97051C   09141.37233678  .00000117  00000-0  35784-4 0  6628
2 24946  86.3842  79.6248 0009974 110.4926 249.7347 14.32478031611744
IRIDIUM 28 [-]          
1 24948U 97051E   09143.51775223  .00000010  00000-0 -33188-5 0  4555
2 24948  86.3940  78.8278 0002426  88.6078 271.5399 14.34257519612040
IRIDIUM 30 [+]          
1 24949U 97051F   09143.54088182  .00000075  00000-0  19821-4 0  6335
2 24949  86.3944  78.7255 0002509  71.7501 288.3969 14.34217585612054
IRIDIUM 31 [+]          
1 24950U 97051G   09143.53455299  .00000106  00000-0  30639-4 0  6215
2 24950  86.3943  78.7213 0002384  76.1829 283.9648 14.34216957612060
IRIDIUM 19 [+]          
1 24965U 97056A   09143.51886767  .00000032  00000-0  41935-5 0  5963
2 24965  86.3943 110.2362 0002477  79.0626 281.0848 14.34213948610205
IRIDIUM 35 [+]          
1 24966U 97056B   09143.53154805  .00000047  00000-0  95572-5 0  6443
2 24966  86.3944 110.2556 0002495  79.0989 281.0488 14.34214225610180
IRIDIUM 36 [-]          
1 24967U 97056C   09143.44553498  .00000068  00000-0  17078-4 0  5733
2 24967  86.3944 110.3585 0002477  83.6961 276.4516 14.34294843610314
IRIDIUM 37 [+]          
1 24968U 97056D   09143.43641131  .00000077  00000-0  20429-4 0  6044
2 24968  86.3943 110.3939 0002535  78.4439 281.7038 14.34214191610174
IRIDIUM 34 [+]          
1 24969U 97056E   09143.52519208  .00000074  00000-0  19192-4 0  5955
2 24969  86.3942 110.3020 0002507  80.3439 279.8041 14.34214739610187
IRIDIUM 43 [+]          
1 25039U 97069A   09143.51302261  .00000011  00000-0 -30955-5 0  5926
2 25039  86.4011 173.4981 0002639  82.3154 277.8351 14.34218535603960
IRIDIUM 41 [+]          
1 25040U 97069B   09143.50668720  .00000011  00000-0 -32241-5 0  5832
2 25040  86.3992 173.4109 0002554  82.2564 277.8927 14.34218204603963
IRIDIUM 40 [+]          
1 25041U 97069C   09143.53205613 -.00000003  00000-0 -82954-5 0  6103
2 25041  86.4007 173.3697 0002605  81.8874 278.2624 14.34218175603987
IRIDIUM 39 [+]          
1 25042U 97069D   09143.53837100 -.00000078  00000-0 -34981-4 0  5833
2 25042  86.3992 173.5272 0002507  84.1323 276.0171 14.34216611603961
IRIDIUM 38 [-]          
1 25043U 97069E   09143.54698380  .00000135  00000-0  40900-4 0  6099
2 25043  86.4002 172.7858 0002288 103.8332 256.3121 14.34696465604079
IRIDIUM 42 [+]          
1 25077U 97077A   09143.52571227  .00000001  00000-0 -66088-5 0  5978
2 25077  86.4003 173.4475 0002583  82.1195 278.0306 14.34218290599822
IRIDIUM 44 [-]          
1 25078U 97077B   09143.13077644  .00000077  00000-0  19578-4 0  1182
2 25078  86.3980 169.1778 0001844 118.4699 241.6681 14.36549062600332
IRIDIUM 45 [+]          
1 25104U 97082A   09143.54374633  .00000092  00000-0  25849-4 0  5405
2 25104  86.3970  47.0490 0002344  77.3641 282.7817 14.34218552598026
IRIDIUM 24 [-]          
1 25105U 97082B   09142.73494918  .00000079  00000-0  19490-4 0  1704
2 25105  86.3927  38.1226 0010541 323.2767  36.7702 14.38259959598993
IRIDIUM 47 [+]          
1 25106U 97082C   09143.48666119  .00000113  00000-0  33271-4 0  5348
2 25106  86.3965  47.0141 0002391  75.0667 285.0799 14.34218818598019
IRIDIUM 49 [+]          
1 25108U 97082E   09143.49934756  .00000174  00000-0  55112-4 0  5510
2 25108  86.3971  47.0299 0002365  76.2731 283.8729 14.34218926598028
IRIDIUM 52 [+]          
1 25169U 98010A   09143.52858118 -.00000064  00000-0 -29906-4 0  3374
2 25169  86.3969 141.8678 0002537  81.7329 278.4146 14.34215051589435
IRIDIUM 56 [+]          
1 25170U 98010B   09143.52223451 -.00000010  00000-0 -10751-4 0  3955
2 25170  86.3969 141.9154 0002544  79.1978 280.9502 14.34215667589411
IRIDIUM 54 [+]          
1 25171U 98010C   09143.48417972 -.00000111  00000-0 -46686-4 0  5639
2 25171  86.3971 141.8900 0002590  81.0502 279.0981 14.34215132589573
IRIDIUM 50 [+]          
1 25172U 98010D   09143.51589208 -.00000048  00000-0 -24029-4 0  5856
2 25172  86.3952 141.8479 0002518  79.6322 280.5152 14.34215569589411
IRIDIUM 53 [+]          
1 25173U 98010E   09143.53492071  .00000006  00000-0 -50715-5 0  5709
2 25173  86.3960 141.8492 0002570  80.0993 280.0487 14.34215484589427
IRIDIUM 51 [S]          
1 25262U 98018A   09143.44145259  .00000079  00000-0  17491-4 0  6757
2 25262  86.4452 110.4388 0002483  79.1970 280.9508 14.42947483587809
IRIDIUM 61 [+]          
1 25263U 98018B   09143.44275937  .00000080  00000-0  21487-4 0  5228
2 25263  86.3938 110.3676 0002497  78.9137 281.2336 14.34214207584503
IRIDIUM 55 [+]          
1 25272U 98019A   09143.51549808  .00000138  00000-0  42128-4 0  5238
2 25272  86.3948  78.6163 0002483  76.7666 283.3808 14.34217880583718
IRIDIUM 57 [+]          
1 25273U 98019B   09143.49013207  .00000154  00000-0  47854-4 0  5548
2 25273  86.3947  78.8033 0002443  76.9074 283.2397 14.34217720583712
IRIDIUM 58 [+]          
1 25274U 98019C   09143.49648881  .00000102  00000-0  29231-4 0  3642
2 25274  86.3938  78.9101 0002360  77.2077 282.9384 14.34217204583714
IRIDIUM 59 [+]          
1 25275U 98019D   09143.50282519  .00000150  00000-0  46525-4 0  2093
2 25275  86.3950  78.9202 0002633  57.5452 302.5997 14.34217534583717
IRIDIUM 60 [+]          
1 25276U 98019E   09143.50918089  .00000118  00000-0  35113-4 0  5887
2 25276  86.3944  78.6525 0002436  76.0719 284.0747 14.34217073583714
IRIDIUM 62 [+]          
1 25285U 98021A   09143.47054392  .00000131  00000-0  39867-4 0  5463
2 25285  86.3983  15.4930 0002373  77.5574 282.5891 14.34219709582665
IRIDIUM 63 [+]          
1 25286U 98021B   09143.47688737  .00000148  00000-0  45951-4 0  5616
2 25286  86.3980  15.5740 0002359  76.0586 284.0873 14.34219736582661
